start=new Date('2023-06-27T00:00:00.000Z').valueOf();
sats=[{"REF_FRAME":"TEME","BSTAR":"0.00017139000000","EPOCH":"2023-06-26T12:58:49.408032","RA_OF_ASC_NODE":"233.0993","TLE_LINE2":"2 48641  53.0522 233.0993 0001239  84.4816 275.6314 15.06392360115827","FILE":"3943467","CLASSIFICATION_TYPE":"U","PERIOD":"95.593","MEAN_MOTION":"15.06392360","OBJECT_NAME":"STARLINK-2754","ELEMENT_SET_NO":"999","ARG_OF_PERICENTER":"84.4816","DECAY_DATE":null,"MEAN_ANOMALY":"275.6314","NORAD_CAT_ID":"48641","LAUNCH_DATE":"2021-05-26","CENTER_NAME":"EARTH","TLE_LINE1":"1 48641U 21044D   23177.54084963  .00002272  00000-0  17139-3 0  9990","REV_AT_EPOCH":"11582","OBJECT_TYPE":"PAYLOAD","PERIAPSIS":"546.379","MEAN_MOTION_DOT":"0.00002272","SITE":"AFETR","APOAPSIS":"548.095","ECCENTRICITY":"0.00012390","TIME_SYSTEM":"UTC","SEMIMAJOR_AXIS":"6925.372","MEAN_MOTION_DDOT":"0.0000000000000","MEAN_ELEMENT_THEORY":"SGP4","GP_ID":"234569139","INCLINATION":"53.0522","OBJECT_ID":"2021-044D","EPHEMERIS_TYPE":"0","RCS_SIZE":"LARGE","COUNTRY_CODE":"US"},{"TLE_LINE1":"1 48642U 21044E   23177.42195661  .00001618  00000-0  12754-3 0  9997","REV_AT_EPOCH":"11574","OBJECT_TYPE":"PAYLOAD","CENTER_NAME":"EARTH","LAUNCH_DATE":"2021-05-26","SEMIMAJOR_AXIS":"6925.390","TIME_SYSTEM":"UTC","APOAPSIS":"548.335","ECCENTRICITY":"0.00015590","SITE":"AFETR","PERIAPSIS":"546.176","MEAN_MOTION_DOT":"0.00001618","OBJECT_ID":"2021-044E","INCLINATION":"53.0525","GP_ID":"234569483","MEAN_ELEMENT_THEORY":"SGP4","MEAN_MOTION_DDOT":"0.0000000000000","RCS_SIZE":"LARGE","COUNTRY_CODE":"US","EPHEMERIS_TYPE":"0","REF_FRAME":"TEME","CLASSIFICATION_TYPE":"U","RA_OF_ASC_NODE":"233.6382","TLE_LINE2":"2 48642  53.0525 233.6382 0001559  80.7203 279.3962 15.06386329115742","FILE":"3943482","EPOCH":"2023-06-26T10:07:37.051104","BSTAR":"0.00012754000000","PERIOD":"95.593","MEAN_MOTION":"15.06386329","NORAD_CAT_ID":"48642","MEAN_ANOMALY":"279.3962","DECAY_DATE":null,"ELEMENT_SET_NO":"999","ARG_OF_PERICENTER":"80.7203","OBJECT_NAME":"STARLINK-2646"},{"REF_FRAME":"TEME","EPOCH":"2023-06-26T12:52:08.865408","BSTAR":"0.00008394300000","CLASSIFICATION_TYPE":"U","FILE":"3943468","TLE_LINE2":"2 48643  53.0525 233.1152 0001235  95.9545 264.1585 15.06389269115829","RA_OF_ASC_NODE":"233.1152","PERIOD":"95.593","MEAN_MOTION":"15.06389269","ARG_OF_PERICENTER":"95.9545","ELEMENT_SET_NO":"999","OBJECT_NAME":"STARLINK-2704","NORAD_CAT_ID":"48643","MEAN_ANOMALY":"264.1585","DECAY_DATE":null,"TLE_LINE1":"1 48643U 21044F   23177.53621372  .00000969  00000-0  83943-4 0  9990","REV_AT_EPOCH":"11582","OBJECT_TYPE":"PAYLOAD","LAUNCH_DATE":"2021-05-26","CENTER_NAME":"EARTH","SITE":"AFETR","PERIAPSIS":"546.391","MEAN_MOTION_DOT":"0.00000969","TIME_SYSTEM":"UTC","SEMIMAJOR_AXIS":"6925.381","APOAPSIS":"548.102","ECCENTRICITY":"0.00012350","GP_ID":"234569144","MEAN_MOTION_DDOT":"0.0000000000000","MEAN_ELEMENT_THEORY":"SGP4","OBJECT_ID":"2021-044F","INCLINATION":"53.0525","EPHEMERIS_TYPE":"0","RCS_SIZE":"LARGE","COUNTRY_CODE":"US"},{"ARG_OF_PERICENTER":"89.7630","ELEMENT_SET_NO":"999","OBJECT_NAME":"STARLINK-2695","NORAD_CAT_ID":"48644","MEAN_ANOMALY":"270.3488","DECAY_DATE":null,"PERIOD":"95.593","MEAN_MOTION":"15.06391806","EPOCH":"2023-06-26T09:37:07.704768","BSTAR":"-0.00006380100000","CLASSIFICATION_TYPE":"U","RA_OF_ASC_NODE":"233.7310","TLE_LINE2":"2 48644  53.0541 233.7310 0001121  89.7630 270.3488 15.06391806115742","FILE":"3943172","REF_FRAME":"TEME","EPHEMERIS_TYPE":"0","RCS_SIZE":"LARGE","COUNTRY_CODE":"US","GP_ID":"234561890","MEAN_MOTION_DDOT":"0.0000000000000","MEAN_ELEMENT_THEORY":"SGP4","OBJECT_ID":"2021-044G","INCLINATION":"53.0541","SITE":"AFETR","PERIAPSIS":"546.462","MEAN_MOTION_DOT":"-0.00001231","TIME_SYSTEM":"UTC","SEMIMAJOR_AXIS":"6925.374","ECCENTRICITY":"0.00011210","APOAPSIS":"548.015","TLE_LINE1":"1 48644U 21044G   23177.40078362 -.00001231  00000-0 -63801-4 0  9998","REV_AT_EPOCH":"11574","OBJECT_TYPE":"PAYLOAD","CENTER_NAME":"EARTH","LAUNCH_DATE":"2021-05-26"},{"EPHEMERIS_TYPE":"0","COUNTRY_CODE":"US","RCS_SIZE":"LARGE","GP_ID":"234562415","MEAN_ELEMENT_THEORY":"SGP4","MEAN_MOTION_DDOT":"0.0000000000000","OBJECT_ID":"2021-044H","INCLINATION":"53.0543","SITE":"AFETR","MEAN_MOTION_DOT":"-0.00005433","PERIAPSIS":"546.253","SEMIMAJOR_AXIS":"6925.387","TIME_SYSTEM":"UTC","APOAPSIS":"548.250","ECCENTRICITY":"0.00014420","OBJECT_TYPE":"PAYLOAD","TLE_LINE1":"1 48645U 21044H   23177.39709034 -.00005433  00000-0 -34626-3 0  9994","REV_AT_EPOCH":"11580","LAUNCH_DATE":"2021-05-26","CENTER_NAME":"EARTH","ARG_OF_PERICENTER":"103.4739","ELEMENT_SET_NO":"999","OBJECT_NAME":"STARLINK-2733","NORAD_CAT_ID":"48645","MEAN_ANOMALY":"256.6411","DECAY_DATE":null,"MEAN_MOTION":"15.06387549","PERIOD":"95.593","EPOCH":"2023-06-26T09:31:48.605376","BSTAR":"-0.00034626000000","CLASSIFICATION_TYPE":"U","FILE":"3943173","TLE_LINE2":"2 48645  53.0543 233.7437 0001442 103.4739 256.6411 15.06387549115804","RA_OF_ASC_NODE":"233.7437","REF_FRAME":"TEME"},{"EPOCH":"2023-06-25T20:42:10.707552","BSTAR":"-0.00037964000000","CLASSIFICATION_TYPE":"U","FILE":"3942871","TLE_LINE2":"2 48646  53.0526 236.1418 0001255  74.5275 285.5853 15.06399814115727","RA_OF_ASC_NODE":"236.1418","REF_FRAME":"TEME","ARG_OF_PERICENTER":"74.5275","ELEMENT_SET_NO":"999","OBJECT_NAME":"STARLINK-2732","MEAN_ANOMALY":"285.5853","NORAD_CAT_ID":"48646","DECAY_DATE":null,"MEAN_MOTION":"15.06399814","PERIOD":"95.592","SITE":"AFETR","MEAN_MOTION_DOT":"-0.00005931","PERIAPSIS":"546.345","SEMIMAJOR_AXIS":"6925.349","TIME_SYSTEM":"UTC","APOAPSIS":"548.083","ECCENTRICITY":"0.00012550","OBJECT_TYPE":"PAYLOAD","REV_AT_EPOCH":"11572","TLE_LINE1":"1 48646U 21044J   23176.86262393 -.00005931  00000-0 -37964-3 0  9999","CENTER_NAME":"EARTH","LAUNCH_DATE":"2021-05-26","EPHEMERIS_TYPE":"0","COUNTRY_CODE":"US","RCS_SIZE":"LARGE","GP_ID":"234554480","MEAN_MOTION_DDOT":"0.0000000000000","MEAN_ELEMENT_THEORY":"SGP4","OBJECT_ID":"2021-044J","INCLINATION":"53.0526"},{"NORAD_CAT_ID":"48647","MEAN_ANOMALY":"284.6483","DECAY_DATE":null,"ELEMENT_SET_NO":"999","ARG_OF_PERICENTER":"75.4619","OBJECT_NAME":"STARLINK-2691","PERIOD":"95.593","MEAN_MOTION":"15.06392468","CLASSIFICATION_TYPE":"U","RA_OF_ASC_NODE":"233.7781","TLE_LINE2":"2 48647  53.0524 233.7781 0001018  75.4619 284.6483 15.06392468115807","FILE":"3943180","EPOCH":"2023-06-26T09:21:11.995488","BSTAR":"-0.00005120000000","REF_FRAME":"TEME","RCS_SIZE":"LARGE","COUNTRY_CODE":"US","EPHEMERIS_TYPE":"0","OBJECT_ID":"2021-044K","INCLINATION":"53.0524","GP_ID":"234562017","MEAN_ELEMENT_THEORY":"SGP4","MEAN_MOTION_DDOT":"0.0000000000000","SEMIMAJOR_AXIS":"6925.372","TIME_SYSTEM":"UTC","APOAPSIS":"547.942","ECCENTRICITY":"0.00010180","SITE":"AFETR","PERIAPSIS":"546.532","MEAN_MOTION_DOT":"-0.00001044","REV_AT_EPOCH":"11580","TLE_LINE1":"1 48647U 21044K   23177.38972217 -.00001044  00000-0 -51200-4 0  9992","OBJECT_TYPE":"PAYLOAD","LAUNCH_DATE":"2021-05-26","CENTER_NAME":"EARTH"},{"SITE":"AFETR","MEAN_MOTION_DOT":"0.00000135","PERIAPSIS":"546.501","TIME_SYSTEM":"UTC","SEMIMAJOR_AXIS":"6925.380","ECCENTRICITY":"0.00010740","APOAPSIS":"547.989","OBJECT_TYPE":"PAYLOAD","TLE_LINE1":"1 48648U 21044L   23177.40448590  .00000135  00000-0  27986-4 0  9990","REV_AT_EPOCH":"11574","LAUNCH_DATE":"2021-05-26","CENTER_NAME":"EARTH","EPHEMERIS_TYPE":"0","COUNTRY_CODE":"US","RCS_SIZE":"LARGE","GP_ID":"234562577","MEAN_MOTION_DDOT":"0.0000000000000","MEAN_ELEMENT_THEORY":"SGP4","OBJECT_ID":"2021-044L","INCLINATION":"53.0522","EPOCH":"2023-06-26T09:42:27.581760","BSTAR":"0.00002798600000","CLASSIFICATION_TYPE":"U","TLE_LINE2":"2 48648  53.0522 233.8754 0001074  86.6174 273.4938 15.06389710115749","RA_OF_ASC_NODE":"233.8754","FILE":"3943184","REF_FRAME":"TEME","ARG_OF_PERICENTER":"86.6174","ELEMENT_SET_NO":"999","OBJECT_NAME":"STARLINK-2521","MEAN_ANOMALY":"273.4938","NORAD_CAT_ID":"48648","DECAY_DATE":null,"MEAN_MOTION":"15.06389710","PERIOD":"95.593"},{"ELEMENT_SET_NO":"999","ARG_OF_PERICENTER":"84.2240","OBJECT_NAME":"STARLINK-2673","MEAN_ANOMALY":"275.8878","NORAD_CAT_ID":"48649","DECAY_DATE":null,"MEAN_MOTION":"15.06394834","PERIOD":"95.592","EPOCH":"2023-06-26T09:15:53.158752","BSTAR":"-0.00004264800000","CLASSIFICATION_TYPE":"U","TLE_LINE2":"2 48649  53.0528 233.7945 0001131  84.2240 275.8878 15.06394834115730","RA_OF_ASC_NODE":"233.7945","FILE":"3943188","REF_FRAME":"TEME","EPHEMERIS_TYPE":"0","COUNTRY_CODE":"US","RCS_SIZE":"LARGE","GP_ID":"234562649","MEAN_MOTION_DDOT":"0.0000000000000","MEAN_ELEMENT_THEORY":"SGP4","OBJECT_ID":"2021-044M","INCLINATION":"53.0528","SITE":"AFETR","MEAN_MOTION_DOT":"-0.00000916","PERIAPSIS":"546.446","TIME_SYSTEM":"UTC","SEMIMAJOR_AXIS":"6925.364","ECCENTRICITY":"0.00011310","APOAPSIS":"548.013","OBJECT_TYPE":"PAYLOAD","TLE_LINE1":"1 48649U 21044M   23177.38603193 -.00000916  00000-0 -42648-4 0  9991","REV_AT_EPOCH":"11573","LAUNCH_DATE":"2021-05-26","CENTER_NAME":"EARTH"},{"PERIAPSIS":"546.344","MEAN_MOTION_DOT":"-0.00008088","SITE":"AFETR","APOAPSIS":"548.148","ECCENTRICITY":"0.00013020","TIME_SYSTEM":"UTC","SEMIMAJOR_AXIS":"6925.381","LAUNCH_DATE":"2021-05-26","CENTER_NAME":"EARTH","TLE_LINE1":"1 48650U 21044N   23176.98426339 -.00008088  00000-0 -52488-3 0  9993","REV_AT_EPOCH":"11567","OBJECT_TYPE":"PAYLOAD","EPHEMERIS_TYPE":"0","RCS_SIZE":"LARGE","COUNTRY_CODE":"US","MEAN_MOTION_DDOT":"0.0000000000000","MEAN_ELEMENT_THEORY":"SGP4","GP_ID":"234555392","INCLINATION":"53.0525","OBJECT_ID":"2021-044N","BSTAR":"-0.00052488000000","EPOCH":"2023-06-25T23:37:20.356896","RA_OF_ASC_NODE":"235.6085","TLE_LINE2":"2 48650  53.0525 235.6085 0001302  58.1980 301.9136 15.06389423115675","FILE":"3942901","CLASSIFICATION_TYPE":"U","REF_FRAME":"TEME","OBJECT_NAME":"STARLINK-2672","ARG_OF_PERICENTER":"58.1980","ELEMENT_SET_NO":"999","DECAY_DATE":null,"MEAN_ANOMALY":"301.9136","NORAD_CAT_ID":"48650","PERIOD":"95.593","MEAN_MOTION":"15.06389423"}];
